TELKOM 2                
1 28902U 05046A   20248.14355042 -.00000152  00000-0  00000+0 0  9994
2 28902   0.0343 259.4487 0000509 212.2670  80.6670  1.00271694 54068
SPACEWAY 2              
1 28903U 05046B   20248.41150306  .00000092  00000-0  00000+0 0  9993
2 28903   0.3664  92.7876 0000293 142.7832 117.6590  1.00269883 54312
METEOSAT-9 (MSG-2)      
1 28912U 05049B   20247.79928892  .00000005  00000-0  00000-0 0  9994
2 28912   4.5868  69.8081 0001107  42.8069 161.9836  1.00267344 53857
EUTELSAT 174A           
1 28924U 05052A   20247.83331093 -.00000005  00000-0  00000-0 0  9998
2 28924   0.0675 352.7314 0006368 171.6892 292.9836  1.00271449 31154
ECHOSTAR 10             
1 28935U 06003A   20248.22809583 -.00000069  00000-0  00000+0 0  9994
2 28935   0.0554 304.1932 0001329 219.4736 152.0240  1.00272150 53338
SPAINSAT                
1 28945U 06007A   20248.12865567 -.00000229  00000-0  00000+0 0  9990
2 28945   0.0569 258.4504 0005294 276.8667 184.6857  1.00277345 53051
EUTELSAT HOT BIRD 13E   
1 28946U 06007B   20247.87300326  .00000073  00000-0  00000-0 0  9996
2 28946   0.0591 241.3701 0007198 290.4780 138.8774  1.00272445 53123
JCSAT-5A                
1 29045U 06010A   20247.96848991 -.00000342  00000-0  00000+0 0  9995
2 29045   0.0626 274.3119 0002772 266.9313 282.9944  1.00269848 52767
ASTRA 1KR               
1 29055U 06012A   20247.87422455  .00000105  00000-0  00000-0 0  9998
2 29055   0.0923 274.8780 0004849 282.1135 120.3603  1.00273870 24548
GOES 13                 
1 29155U 06018A   20248.25535389  .00000026  00000-0  00000+0 0  9990
2 29155   0.0759 157.2155 0008313  42.7777 296.9868  1.00273992 52334
EUTELSAT 113 WEST A     
1 29162U 06020A   20247.59938925 -.00000052  00000-0  00000-0 0  9991
2 29162   0.0505 289.7451 0002965 235.2422 280.9744  1.00271769 52295
GALAXY 16 (G-16)        
1 29236U 06023A   20248.18326146 -.00000140  00000-0  00000+0 0  9995
2 29236   0.0190 172.2301 0002977 349.1321 149.3563  1.00273288 52085
EUTELSAT HOT BIRD 13B   
1 29270U 06032A   20248.00118826  .00000073  00000-0  00000+0 0  9992
2 29270   0.0668 337.9088 0002143 188.3530 190.7143  1.00272920 51686
JCSAT-3A                
1 29272U 06033A   20248.44424340 -.00000357  00000-0  00000+0 0  9990
2 29272   0.0100 175.2751 0002391 350.1133 106.5555  1.00273708 51588
SYRACUSE 3B             
1 29273U 06033B   20248.15648323 -.00000057  00000-0  00000+0 0  9995
2 29273   0.0160 130.0100 0005653  23.1517 241.6981  1.00272069 51571
KOREASAT 5 (MUGUNGWHA 5)
1 29349U 06034A   20247.80327279 -.00000373  00000-0  00000-0 0  9997
2 29349   0.0126 198.4087 0002228 351.8353 195.3623  1.00269993 20131
DIRECTV 9S              
1 29494U 06043A   20248.18184743 -.00000127  00000-0  00000+0 0  9993
2 29494   0.0255 212.9171 0003391 320.8789 134.2179  1.00272676 50922
OPTUS D1                
1 29495U 06043B   20248.47522965 -.00000123  00000-0  00000+0 0  9994
2 29495   0.0151 134.8853 0003569  30.3807 149.8633  1.00270030 50961
XM-4 (BLUES)            
1 29520U 06049A   20248.44428275 -.00000035  00000-0  00000+0 0  9997
2 29520   0.0122 176.4890 0000390 337.3121 234.8861  1.00274048 50825
BADR-4                  
1 29526U 06051A   20248.16267698  .00000131  00000-0  00000+0 0  9991
2 29526   0.0598 324.7060 0002657 239.7823 223.7957  1.00269453 50712
WILDBLUE-1              
1 29643U 06054A   20247.60134075 -.00000064  00000-0  00000-0 0  9991
2 29643   0.0118 125.3279 0001818  31.2393 291.9159  1.00272325 32614
AMC-18                  
1 29644U 06054B   20248.36868719  .00000092  00000-0  00000+0 0  9994
2 29644   0.0615 291.2207 0002922 233.6593 172.7747  1.00272314 50378
MEASAT-3                
1 29648U 06056A   20248.08660721 -.00000256  00000-0  00000+0 0  9995
2 29648   0.0225 161.2753 0003902 356.0782 308.9743  1.00274410 50378
INSAT-4B                
1 30793U 07007A   20248.10274594 -.00000202  00000-0  00000+0 0  9998
2 30793   0.6248  96.9104 0004887 121.4132 247.8547  1.00271125 49384
SKYNET 5A               
1 30794U 07007B   20248.10466514 -.00000285  00000-0  00000+0 0  9995
2 30794   0.7472  91.0204 0003497  75.2635 310.2830  1.00273646 49472
ANIK F3                 
1 31102U 07009A   20248.22319903 -.00000014  00000-0  00000+0 0  9993
2 31102   0.0122 131.8105 0001914  27.0532 146.5697  1.00271766 49154
ASTRA 1L                
1 31306U 07016A   20247.87422455  .00000105  00000-0  00000-0 0  9995
2 31306   0.0990 293.8364 0002711 284.1683  99.3244  1.00272796 23854
GALAXY 17 (G-17)        
1 31307U 07016B   20248.38478312 -.00000187  00000-0  00000+0 0  9996
2 31307   0.0179 128.5699 0003749  36.5930 226.3245  1.00270763 48903
ZHONGXING-6B            
1 31800U 07031A   20248.16426025 -.00000375  00000-0  00000+0 0  9990
2 31800   0.0095 177.2952 0003900 349.3066 351.8076  1.00272045 48298
DIRECTV 10              
1 31862U 07032A   20248.23152413 -.00000116  00000-0  00000+0 0  9997
2 31862   0.0177 257.3270 0000125 264.0256 163.0693  1.00269632 48229
SPACEWAY 3              
1 32018U 07036A   20248.39808528 -.00000164  00000-0  00000+0 0  9990
2 32018   0.0103 246.3763 0000291 314.4303 191.5223  1.00273264 47954
BSAT-3A                 
1 32019U 07036B   20248.08070271 -.00000364  00000-0  00000+0 0  9995
2 32019   0.0899 254.0861 0003788 305.9696 282.4959  1.00270698 47882
INSAT-4CR               
1 32050U 07037A   20247.80818698  .00000110  00000-0  00000-0 0  9992
2 32050   1.5181  92.6474 0006633 148.3899  81.1816  1.00274558 30202
OPTUS D2                
1 32252U 07044A   20248.18780093 -.00000196  00000-0  00000+0 0  9997
2 32252   0.0474 299.3806 0003758 223.3801  40.6128  1.00274282 47266
INTELSAT 11 (IS-11)     
1 32253U 07044B   20248.05257804 -.00000282  00000-0  00000+0 0  9999
2 32253   0.0230 166.2314 0001567  16.1238 137.2222  1.00269504 47349
WGS F1 (USA 195)        
1 32258U 07046A   20248.30225442  .00000028  00000-0  00000+0 0  9994
2 32258   0.0107 145.2924 0000372  32.8970 280.4905  1.00270430 47149
STAR ONE C1             
1 32293U 07056A   20248.07273678 -.00000290  00000-0  00000+0 0  9994
2 32293   0.0339 280.6164 0002874 241.1073 143.1179  1.00271961 46926
SKYNET 5B               
1 32294U 07056B   20248.01891226  .00000128  00000-0  00000+0 0  9993
2 32294   0.0729 358.9389 0004136 176.9477 199.6657  1.00275429 47015
ASTRA 4A (SIRIUS 4)     
1 32299U 07057A   20247.87134576  .00000018  00000-0  00000-0 0  9999
2 32299   0.0175  90.9826 0003136  67.1478 143.8090  1.00273000 30506
HORIZONS 2              
1 32388U 07063B   20248.10265869 -.00000195  00000-0  00000+0 0  9998
2 32388   0.0196 161.9307 0002782   6.4145 297.1282  1.00267899 46708
THURAYA-3               
1 32404U 08001A   20247.81821911 -.00000314  00000-0  00000-0 0  9997
2 32404   3.7741  11.3348 0004216 140.0989 225.0309  1.00273490 46345
EXPRESS-AM33            
1 32478U 08003A   20248.47043936 -.00000293  00000-0  00000+0 0  9991
2 32478   0.0521 301.1668 0000580 346.2518 322.4724  1.00271595 46432
THOR 5                  
1 32487U 08006A   20248.23135708 -.00000022  00000-0  00000+0 0  9997
2 32487   0.0619 273.7290 0002488 252.4524 260.1582  1.00273194 46009
AMC-14                  
1 32708U 08011A   20247.09702282  .00000076  00000-0  00000-0 0  9998
2 32708  21.0856  46.4394 0037822   9.3719 339.8374  1.00276266 46967
DIRECTV 11              
1 32729U 08013A   20248.45537601 -.00000138  00000-0  00000+0 0  9994
2 32729   0.0057 230.6072 0000130 341.1839 196.9969  1.00272666 45761
ICO G1                  
1 32763U 08016A   20248.23692356 -.00000182  00000-0  00000+0 0  9999
2 32763   3.6540  14.4270 0002218 159.6207 162.2155  1.00271808 45291
VINASAT-1               
1 32767U 08018A   20247.70744007 -.00000344  00000-0  00000-0 0  9998
2 32767   0.0559 297.6233 0002254 243.6967 188.5818  1.00270642 45413
STAR ONE C2             
1 32768U 08018B   20248.39590899 -.00000278  00000-0  00000+0 0  9998
2 32768   0.0195 146.3689 0002923  36.0848 234.0397  1.00272845 45371
TIANLIAN 1-01           
1 32779U 08019A   20247.88643758 -.00000151  00000-0  00000-0 0  9998
2 32779   4.2898  72.2285 0028465 259.4301  50.8874  1.00271057 45235
AMOS-3                  
1 32794U 08022A   20248.30024800 -.00000048  00000-0  00000+0 0  9992
2 32794   0.0495 274.4821 0003099 231.2584 302.0894  1.00272668 45275
GALAXY 18 (G-18)        
1 32951U 08024A   20248.23626775  .00000012  00000-0  00000+0 0  9990
2 32951   0.0233 164.8446 0003255   1.3490 139.6620  1.00270005 44904
CHINASAT 9 (ZX 9)       
1 33051U 08028A   20248.02244814 -.00000261  00000-0  00000+0 0  9990
2 33051   0.0325 253.1814 0004173 283.3513 267.3378  1.00271111 44837
SKYNET 5C               
1 33055U 08030A   20247.79501436 -.00000154  00000-0  00000-0 0  9998
2 33055   0.0646   3.0649 0003988 159.6478  89.0707  1.00271564 44773
TURKSAT 3A              
1 33056U 08030B   20248.16590471  .00000133  00000-0  00000+0 0  9993
2 33056   0.0490  90.4972 0004799  58.8149 296.1324  1.00272793 44902
INTELSAT 25 (IS-25)     
1 33153U 08034A   20248.11646656 -.00000237  00000-0  00000+0 0  9993
2 33153   0.0218 212.9527 0002430 348.4883 152.6629  1.00274452 44467
BADR-6                  
1 33154U 08034B   20248.16267698  .00000131  00000-0  00000+0 0  9996
2 33154   0.0631  49.6180 0003684  94.8370 283.7978  1.00273373 44578
ECHOSTAR 11             
1 33207U 08035A   20247.60220650 -.00000072  00000-0  00000+0 0  9996
2 33207   0.0570 283.2446 0002700 233.8233 292.9179  1.00271608 44474
SUPERBIRD-C2            
1 33274U 08038A   20248.24073681 -.00000264  00000-0  00000+0 0  9997
2 33274   0.0110 153.1009 0002230  38.7160  22.6078  1.00271020 44202
AMC-21                  
1 33275U 08038B   20247.59255999  .00000021  00000-0  00000+0 0  9999
2 33275   0.0570 298.3376 0002852 231.6323 261.6184  1.00273056 44289
